NORAD_CAT_ID,OBJECT_NAME,OBJECT_TYPE,EPOCH,MEAN_MOTION,ECCENTRICITY,INCLINATION,RA_OF_ASC_NODE,ARG_OF_PERICENTER,MEAN_ANOMALY,BSTAR,MEAN_MOTION_DOT,MEAN_MOTION_DDOT,TLE_LINE0,TLE_LINE1,TLE_LINE2,SEMIMAJOR_AXIS,PERIOD,APOGEE,PERIGEE,DECAYED
53626.0,STARLINK-4554,PAYLOAD,2023-05-19 01:14:52,15.08838433,0.0001147,53.2158,158.0259,87.6845,272.4278,-1.062e-05,-4.57e-06,0.0,0 STARLINK-4554,1 53626U 22104AQ  23139.05199474 -.00000457  00000-0 -10620-4 0  9999,2 53626  53.2158 158.0259 0001147  87.6845 272.4278 15.08838433 40233,6917.885,95.438,540.544,538.957,0.0
53626.0,STARLINK-4554,PAYLOAD,2023-05-19 18:44:06,15.08839529,0.0001113,53.2162,154.7549,88.0488,272.0631,5.0246e-06,-2.08e-06,0.0,0 STARLINK-4554,1 53626U 22104AQ  23139.78063343 -.00000208  00000-0  50246-5 0  9996,2 53626  53.2162 154.7549 0001113  88.0488 272.0631 15.08839529 41039,6917.882,95.438,540.517,538.977,0.0
53626.0,STARLINK-4554,PAYLOAD,2023-05-20 04:16:25,15.08841607,0.0001053,53.2159,152.9708,86.5979,273.5133,5.1166e-05,5.27e-06,0.0,0 STARLINK-4554,1 53626U 22104AQ  23140.17807028  .00000527  00000-0  51166-4 0  9991,2 53626  53.2159 152.9708 0001053  86.5979 273.5133 15.08841607 40406,6917.875,95.437,540.469,539.012,0.0
53626.0,STARLINK-4554,PAYLOAD,2023-05-20 07:27:11,15.08842867,0.0001086,53.216,152.3761,84.2375,275.8741,5.1742e-05,5.36e-06,0.0,0 STARLINK-4554,1 53626U 22104AQ  23140.31054941  .00000536  00000-0  51742-4 0  9995,2 53626  53.2160 152.3761 0001086  84.2375 275.8741 15.08842867 41110,6917.872,95.437,540.488,538.985,0.0
53626.0,STARLINK-4554,PAYLOAD,2023-05-21 10:28:44,15.08840018,0.0001088,53.2159,147.3208,81.7355,278.376,3.6515e-05,2.93e-06,0.0,0 STARLINK-4554,1 53626U 22104AQ  23141.43663050  .00000293  00000-0  36515-4 0  9997,2 53626  53.2159 147.3208 0001088  81.7355 278.3760 15.08840018 40596,6917.88,95.438,540.498,538.993,0.0
53626.0,STARLINK-4554,PAYLOAD,2023-05-21 16:50:17,15.08835462,0.0001118,53.216,146.1298,83.8453,276.2666,-1.7141e-05,-5.61e-06,0.0,0 STARLINK-4554,1 53626U 22104AQ  23141.70159525 -.00000561  00000-0 -17141-4 0  9998,2 53626  53.2160 146.1298 0001118  83.8453 276.2666 15.08835462 41321,6917.894,95.438,540.533,538.986,0.0
53626.0,STARLINK-4554,PAYLOAD,2023-05-22 00:47:13,15.08834549,0.0001193,53.2163,144.6433,90.2846,269.8283,-7.0084e-05,-1.403e-05,0.0,0 STARLINK-4554,1 53626U 22104AQ  23142.03279867 -.00001403  00000-0 -70084-4 0  9998,2 53626  53.2163 144.6433 0001193  90.2846 269.8283 15.08834549 40685,6917.897,95.438,540.587,538.937,0.0
53626.0,STARLINK-4554,PAYLOAD,2023-05-22 07:08:46,15.08836861,0.0001225,53.2163,143.4543,85.3498,274.7634,-4.3155e-05,-9.75e-06,0.0,0 STARLINK-4554,1 53626U 22104AQ  23142.29775715 -.00000975  00000-0 -43155-4 0  9991,2 53626  53.2163 143.4543 0001225  85.3498 274.7634 15.08836861 41414,6917.89,95.438,540.602,538.908,0.0
53626.0,STARLINK-4554,PAYLOAD,2023-05-22 16:41:05,15.08833411,0.0001098,53.2157,141.6709,85.7304,274.3814,-4.6237e-05,-1.023e-05,0.0,0 STARLINK-4554,1 53626U 22104AQ  23142.69520048 -.00001023  00000-0 -46237-4 0  9991,2 53626  53.2157 141.6709 0001098  85.7304 274.3814 15.08833411 41479,6917.901,95.438,540.525,539.006,0.0
53626.0,STARLINK-4554,PAYLOAD,2023-05-23 10:10:19,15.08834099,0.0001101,53.2157,138.3998,84.8977,275.2141,-1.6257e-05,-5.46e-06,0.0,0 STARLINK-4554,1 53626U 22104AQ  23143.42384187 -.00000546  00000-0 -16257-4 0  9993,2 53626  53.2157 138.3998 0001101  84.8977 275.2141 15.08834099 40894,6917.898,95.438,540.525,539.002,0.0
53626.0,STARLINK-4554,PAYLOAD,2023-05-23 16:31:52,15.08836166,0.0001071,53.2159,137.2115,99.3184,260.7929,3.367e-06,-2.34e-06,0.0,0 STARLINK-4554,1 53626U 22104AQ  23143.68880016 -.00000234  00000-0  33670-5 0  9995,2 53626  53.2159 137.2115 0001071  99.3184 260.7929 15.08836166 41624,6917.892,95.438,540.498,539.016,0.0
53626.0,STARLINK-4554,PAYLOAD,2023-05-24 06:50:20,15.08837794,0.0001053,53.2157,134.5348,89.8833,270.228,8.2892e-05,1.032e-05,0.0,0 STARLINK-4554,1 53626U 22104AQ  23144.28495853  .00001032  00000-0  82892-4 0  9998,2 53626  53.2157 134.5348 0001053  89.8833 270.2280 15.08837794 41023,6917.887,95.438,540.481,539.024,0.0
53626.0,STARLINK-4554,PAYLOAD,2023-05-26 04:56:31,15.08842506,0.000113,53.2158,125.9116,89.4616,270.6505,1.7978e-05,-2e-08,0.0,0 STARLINK-4554,1 53626U 22104AQ  23146.20591851 -.00000002  00000-0  17978-4 0  9997,2 53626  53.2158 125.9116 0001130  89.4616 270.6505 15.08842506 41315,6917.873,95.437,540.519,538.956,0.0
53626.0,STARLINK-4554,PAYLOAD,2023-05-27 04:47:19,15.08835258,0.0001149,53.2157,121.4524,80.6523,279.4599,-3.5086e-05,-8.46e-06,0.0,0 STARLINK-4554,1 53626U 22104AQ  23147.19952616 -.00000846  00000-0 -35086-4 0  9993,2 53626  53.2157 121.4524 0001149  80.6523 279.4599 15.08835258 41460,6917.895,95.438,540.555,538.965,0.0
53626.0,STARLINK-4554,PAYLOAD,2023-05-27 22:16:33,15.08837742,0.0001179,53.2157,118.1799,80.7407,279.3719,4.0881e-05,3.63e-06,0.0,0 STARLINK-4554,1 53626U 22104AQ  23147.92816180  .00000363  00000-0  40881-4 0  9990,2 53626  53.2157 118.1799 0001179  80.7407 279.3719 15.08837742 42264,6917.887,95.438,540.568,538.937,0.0
53626.0,STARLINK-4554,PAYLOAD,2023-05-28 03:02:42,15.08839761,0.0001214,53.216,117.2882,81.166,278.947,5.5664e-05,5.98e-06,0.0,0 STARLINK-4554,1 53626U 22104AQ  23148.12688017  .00000598  00000-0  55664-4 0  9994,2 53626  53.2160 117.2882 0001214  81.1660 278.9470 15.08839761 41606,6917.881,95.438,540.586,538.906,0.0
53626.0,STARLINK-4554,PAYLOAD,2023-05-28 04:38:05,15.08842075,0.0001211,53.2161,116.9901,83.2735,276.8395,7.229e-05,8.63e-06,0.0,0 STARLINK-4554,1 53626U 22104AQ  23148.19311809  .00000863  00000-0  72290-4 0  9992,2 53626  53.2161 116.9901 0001211  83.2735 276.8395 15.08842075 42301,6917.874,95.437,540.577,538.901,0.0
53626.0,STARLINK-4554,PAYLOAD,2023-05-28 22:07:20,15.08837787,0.0001213,53.2166,113.7196,82.6003,277.5127,4.5542e-05,4.37e-06,0.0,0 STARLINK-4554,1 53626U 22104AQ  23148.92176173  .00000437  00000-0  45542-4 0  9993,2 53626  53.2166 113.7196 0001213  82.6003 277.5127 15.08837787 42417,6917.887,95.438,540.591,538.913,0.0
53626.0,STARLINK-4554,PAYLOAD,2023-05-29 04:28:52,15.08840384,0.0001149,53.2161,112.5288,82.8453,277.267,6.4136e-05,7.33e-06,0.0,0 STARLINK-4554,1 53626U 22104AQ  23149.18671938  .00000733  00000-0  64136-4 0  9990,2 53626  53.2161 112.5288 0001149  82.8453 277.2670 15.08840384 41764,6917.879,95.438,540.539,538.949,0.0
53626.0,STARLINK-4554,PAYLOAD,2023-05-29 07:39:38,15.08840922,0.0001156,53.2161,111.934,82.6483,277.464,6.6216e-05,7.66e-06,0.0,0 STARLINK-4554,1 53626U 22104AQ  23149.31919884  .00000766  00000-0  66216-4 0  9997,2 53626  53.2161 111.9340 0001156  82.6483 277.4640 15.08840922 42471,6917.878,95.437,540.542,538.943,0.0
53626.0,STARLINK-4554,PAYLOAD,2023-05-30 01:08:54,15.08832743,0.0001046,53.217,108.6648,80.5957,279.5153,-8.3938e-05,-1.623e-05,0.0,0 STARLINK-4554,1 53626U 22104AQ  23150.04785112 -.00001623  00000-0 -83938-4 0  9999,2 53626  53.2170 108.6648 0001046  80.5957 279.5153 15.08832743 41895,6917.903,95.438,540.491,539.044,0.0
53626.0,STARLINK-4554,PAYLOAD,2023-05-30 07:30:26,15.08837289,0.0001155,53.2163,107.4743,82.2886,277.8237,-3.8422e-05,-8.99e-06,0.0,0 STARLINK-4554,1 53626U 22104AQ  23150.31280724 -.00000899  00000-0 -38422-4 0  9990,2 53626  53.2163 107.4743 0001155  82.2886 277.8237 15.08837289 42627,6917.889,95.438,540.553,538.955,0.0
53626.0,STARLINK-4554,PAYLOAD,2023-05-31 02:35:05,15.08819817,0.0001208,53.2163,103.9064,95.1573,264.9557,-0.0001346,-2.428e-05,0.0,0 STARLINK-4554,1 53626U 22104AQ  23151.10770681 -.00002428  00000-0 -13460-3 0  9998,2 53626  53.2163 103.9064 0001208  95.1573 264.9557 15.08819817 42055,6917.942,95.439,540.643,538.971,0.0
53626.0,STARLINK-4554,PAYLOAD,2023-05-31 07:21:15,15.08819586,0.0001178,53.2169,103.0137,88.8379,271.2749,-0.00014841,-2.648e-05,0.0,0 STARLINK-4554,1 53626U 22104AQ  23151.30643033 -.00002648  00000-0 -14841-3 0  9998,2 53626  53.2169 103.0137 0001178  88.8379 271.2749 15.08819586 42778,6917.943,95.439,540.623,538.993,0.0
53626.0,STARLINK-4554,PAYLOAD,2023-06-01 02:25:52,15.08830232,0.0001399,53.2174,99.4473,77.7443,282.3706,3.0545e-05,1.98e-06,0.0,0 STARLINK-4554,1 53626U 22104AQ  23152.10130532  .00000198  00000-0  30545-4 0  9998,2 53626  53.2174  99.4473 0001399  77.7443 282.3706 15.08830232 42204,6917.91,95.438,540.743,538.807,0.0
53626.0,STARLINK-4554,PAYLOAD,2023-06-01 05:36:38,15.08838861,0.0001258,53.2168,98.8506,91.5257,268.5879,9.0457e-05,1.152e-05,0.0,0 STARLINK-4554,1 53626U 22104AQ  23152.23377783  .00001152  00000-0  90457-4 0  9992,2 53626  53.2168  98.8506 0001258  91.5257 268.5879 15.08838861 42919,6917.884,95.438,540.619,538.879,0.0
53626.0,STARLINK-4554,PAYLOAD,2023-06-02 02:16:37,15.08847327,0.0001273,53.2168,94.9856,87.3081,272.8057,0.00032583,4.903e-05,0.0,0 STARLINK-4554,1 53626U 22104AQ  23153.09488376  .00004903  00000-0  32583-3 0  9990,2 53626  53.2168  94.9856 0001273  87.3081 272.8057 15.08847327 42350,6917.858,95.437,540.604,538.842,0.0
53626.0,STARLINK-4554,PAYLOAD,2023-06-02 03:52:01,15.08845236,0.0001281,53.2165,94.6892,85.0253,275.0885,0.00032242,4.848e-05,0.0,0 STARLINK-4554,1 53626U 22104AQ  23153.16112504  .00004848  00000-0  32242-3 0  9995,2 53626  53.2165  94.6892 0001281  85.0253 275.0885 15.08845236 43058,6917.864,95.437,540.616,538.843,0.0
53626.0,STARLINK-4554,PAYLOAD,2023-06-02 19:45:53,15.08839228,0.0001452,53.2171,91.7128,94.6618,265.454,5.2336e-05,5.45e-06,0.0,0 STARLINK-4554,1 53626U 22104AQ  23153.82353840  .00000545  00000-0  52336-4 0  9995,2 53626  53.2171  91.7128 0001452  94.6618 265.4540 15.08839228 43152,6917.883,95.438,540.752,538.743,0.0
53626.0,STARLINK-4554,PAYLOAD,2023-06-03 02:07:26,15.08839055,0.0001266,53.2175,90.5247,86.0237,274.09,-2.2001e-05,-6.38e-06,0.0,0 STARLINK-4554,1 53626U 22104AQ  23154.08850094 -.00000638  00000-0 -22001-4 0  9998,2 53626  53.2175  90.5247 0001266  86.0237 274.0900 15.08839055 42502,6917.883,95.438,540.624,538.872,0.0
